STARLINK-32466          
1 61859U 24202Q   26068.46838647  .00000106  00000+0  13396-4 0  9999
2 61859  43.0012 239.2537 0002000 284.1644  75.8985 15.27579013 75300
FLOCK 4G-23             
1 62647U 25009AQ  26068.71663397  .00012440  00000+0  46816-3 0  9993
2 62647  97.3979 150.9478 0000905   7.2707 352.8545 15.27262579 63728
